[{"OBJECT_NAME":"GEISAT PRECURSOR","OBJECT_ID":"2023-084C","EPOCH":"2026-03-09T22:20:25.833120","MEAN_MOTION":15.33054389,"ECCENTRICITY":0.00051675,"INCLINATION":97.6055,"RA_OF_ASC_NODE":206.8263,"ARG_OF_PERICENTER":345.1842,"MEAN_ANOMALY":14.9247,"EPHEMERIS_TYPE":0,"CLASSIFICATION_TYPE":"U","NORAD_CAT_ID":56934,"ELEMENT_SET_NO":999,"REV_AT_EPOCH":15231,"BSTAR":0.00033857167,"MEAN_MOTION_DOT":0.00010736,"MEAN_MOTION_DDOT":0},{"OBJECT_NAME":"STARLINK-31063","OBJECT_ID":"2023-192S","EPOCH":"2026-03-09T23:18:53.049312","MEAN_MOTION":15.30191527,"ECCENTRICITY":0.0001071,"INCLINATION":53.1605,"RA_OF_ASC_NODE":51.0877,"ARG_OF_PERICENTER":74.1855,"MEAN_ANOMALY":285.9264,"EPHEMERIS_TYPE":0,"CLASSIFICATION_TYPE":"U","NORAD_CAT_ID":58547,"ELEMENT_SET_NO":999,"REV_AT_EPOCH":12617,"BSTAR":3.3768315e-5,"MEAN_MOTION_DOT":6.41e-6,"MEAN_MOTION_DDOT":0}]
